APRIZESAT 2             
1 28366U 04025A   26190.27208912  .00000160  00000+0  62531-4 0  9992
2 28366  98.1034 355.0043 0105526 182.7174 177.3454 14.38045813154818
SAUDICOMSAT 1           
1 28369U 04025D   26191.45852288  .00000192  00000+0  55263-4 0  9996
2 28369  98.5775 202.2183 0031186 313.8833  45.9788 14.55491500167512
SAUDICOMSAT 2           
1 28370U 04025E   26190.48320718  .00000129  00000+0  45197-4 0  9993
2 28370  98.6641 203.3598 0055235 191.0053 168.9936 14.49992555163336
APRIZESAT 1             
1 28372U 04025G   26190.48728691  .00000171  00000+0  54113-4 0  9992
2 28372  98.6307 201.8197 0045817  87.5682 273.0757 14.51789909165147
NANOSAT-1               
1 28493U 04049B   26191.55871661  .00000588  00000+0  84628-4 0  9993
2 28493  98.2303 328.7952 0003428 199.8666 160.2412 14.80205370158900
SAUDICOMSAT 7           
1 31119U 07012C   26190.49815470  .00000353  00000+0  72306-4 0  9993
2 31119  98.3793 165.0881 0056758 125.7614 234.8886 14.66132899 25704
SAUDICOMSAT 6           
1 31121U 07012E   26191.14546664  .00000254  00000+0  58592-4 0  9996
2 31121  98.4113 159.0913 0070388 255.1142 104.2256 14.62582004 23546
SAUDICOMSAT 5           
1 31124U 07012H   26191.39447237  .00000419  00000+0  80789-4 0  9998
2 31124  98.3505 166.7451 0048489  53.6485 306.9180 14.68188346 27002
SAUDICOMSAT 3           
1 31125U 07012J   26191.17863623  .00000523  00000+0  93600-4 0  9998
2 31125  98.3159 167.0716 0038613 341.3426  18.6362 14.70745047 28208
SAUDICOMSAT 4           
1 31127U 07012L   26190.76938937  .00000267  00000+0  58823-4 0  9998
2 31127  98.3999 163.8022 0063168 186.6883 173.3482 14.64532489 24593
APRIZESAT 4             
1 35684U 09041D   26191.58820809  .00000399  00000+0  54416-4 0  9993
2 35684  98.1405 267.3745 0042009 244.8711 114.8142 14.83909911914832
APRIZESAT 3             
1 35686U 09041F   26191.23713804  .00001084  00000+0  98317-4 0  9993
2 35686  98.2087 345.5692 0061138 352.2425   7.7843 14.96300654919826
S-NET C                 
1 43189U 18014K   26191.17179009  .00003189  00000+0  16547-3 0  9998
2 43189  97.5373  96.0982 0008190 291.4875  68.5484 15.16850707460790
SALSAT                  
1 46495U 20068K   26191.42889773  .00005381  00000+0  18731-3 0  9990
2 46495  97.8857 195.9138 0008699 210.5134 149.5600 15.30129687318917
OOV-CUBE (TUBSAT-30)    
1 60240U 24128F   26190.61158508  .00001327  00000+0  11249-3 0  9993
2 60240  61.9941 147.3745 0041807 138.6970 221.7297 15.02859618109486
LPNTSAT-001 (IOD-1)     
1 68408U 26065A   26190.48017286  .00001847  00000+0  92207-4 0  9992
2 68408  97.3994  70.5166 0014683 288.6922  71.2718 15.18651285 15647
