OBJECT_NAME,OBJECT_ID,EPOCH,MEAN_MOTION,ECCENTRICITY,INCLINATION,RA_OF_ASC_NODE,ARG_OF_PERICENTER,MEAN_ANOMALY,EPHEMERIS_TYPE,CLASSIFICATION_TYPE,NORAD_CAT_ID,ELEMENT_SET_NO,REV_AT_EPOCH,BSTAR,MEAN_MOTION_DOT,MEAN_MOTION_DDOT
APRIZESAT 2,2004-025A,2026-07-09T06:31:48.499968,14.38045813,.01055269,98.1034,355.0043,182.7174,177.3454,0,U,28366,999,15481,.62531368E-4,.16E-5,0
SAUDICOMSAT 1,2004-025D,2026-07-10T11:00:16.376832,14.55491500,.00311863,98.5775,202.2183,313.8833,45.9788,0,U,28369,999,16751,.55262806E-4,.192E-5,0
SAUDICOMSAT 2,2004-025E,2026-07-09T11:35:49.100352,14.49992555,.00552357,98.6641,203.3598,191.0053,168.9936,0,U,28370,999,16333,.45197421E-4,.129E-5,0
APRIZESAT 1,2004-025G,2026-07-09T11:41:41.589024,14.51789909,.00458172,98.6307,201.8197,87.5682,273.0757,0,U,28372,999,16514,.5411328E-4,.171E-5,0
NANOSAT-1,2004-049B,2026-07-10T13:24:33.115968,14.80205370,.00034279,98.2303,328.7952,199.8666,160.2412,0,U,28493,999,15890,.84628226E-4,.588E-5,0
SAUDICOMSAT 7,2007-012C,2026-07-09T11:57:20.566080,14.66132899,.0056758,98.3793,165.0881,125.7614,234.8886,0,U,31119,999,2570,.72306275E-4,.353E-5,0
SAUDICOMSAT 6,2007-012E,2026-07-10T03:29:28.317696,14.62582004,.00703886,98.4113,159.0913,255.1142,104.2256,0,U,31121,999,2354,.58592345E-4,.254E-5,0
SAUDICOMSAT 5,2007-012H,2026-07-10T09:28:02.412768,14.68188346,.00484899,98.3505,166.7451,53.6485,306.9180,0,U,31124,999,2700,.80788552E-4,.419E-5,0
SAUDICOMSAT 3,2007-012J,2026-07-10T04:17:14.170272,14.70745047,.00386135,98.3159,167.0716,341.3426,18.6362,0,U,31125,999,2820,.93600018E-4,.523E-5,0
SAUDICOMSAT 4,2007-012L,2026-07-09T18:27:55.241568,14.64532489,.0063168,98.3999,163.8022,186.6883,173.3482,0,U,31127,999,2459,.588233E-4,.267E-5,0
APRIZESAT 4,2009-041D,2026-07-10T14:07:01.179840,14.83909911,.00420086,98.1405,267.3745,244.8711,114.8142,0,U,35684,999,91483,.54416263E-4,.399E-5,0
APRIZESAT 3,2009-041F,2026-07-10T05:41:28.726656,14.96300654,.00611381,98.2087,345.5692,352.2425,7.7843,0,U,35686,999,91982,.98316759E-4,.1084E-4,0
S-NET C,2018-014K,2026-07-10T04:07:22.663776,15.16850707,.00081901,97.5373,96.0982,291.4875,68.5484,0,U,43189,999,46079,.16546809E-3,.3189E-4,0
SALSAT,2020-068K,2026-07-10T10:17:36.763872,15.30129687,.00086995,97.8857,195.9138,210.5134,149.5600,0,U,46495,999,31891,.18731159E-3,.5381E-4,0
OOV-CUBE (TUBSAT-30),2024-128F,2026-07-09T14:40:40.950912,15.02859618,.00418074,61.9941,147.3745,138.6970,221.7297,0,U,60240,999,10948,.11248636E-3,.1327E-4,0
LPNTSAT-001 (IOD-1),2026-065A,2026-07-09T11:31:26.935104,15.18651285,.00146833,97.3994,70.5166,288.6922,71.2718,0,U,68408,999,1564,.92207214E-4,.1847E-4,0
